{"fetched_at":"2026-07-06T08:47:16.552Z","source":"https://celestrak.org/NORAD/elements/gp.php?NAME=RADARSAT&FORMAT=JSON","constellation":"radarsat-2","records":[{"OBJECT_NAME":"RADARSAT-2","OBJECT_ID":"2007-061A","EPOCH":"2026-07-05T13:55:20.081856","CLASSIFICATION_TYPE":"U","MEAN_MOTION":14.29981359,"ECCENTRICITY":0.00013037,"INCLINATION":98.5778,"RA_OF_ASC_NODE":193.2499,"ARG_OF_PERICENTER":84.7171,"MEAN_ANOMALY":275.416,"EPHEMERIS_TYPE":0,"NORAD_CAT_ID":32382,"ELEMENT_SET_NO":999,"REV_AT_EPOCH":96858,"BSTAR":0.000019306553,"MEAN_MOTION_DOT":6e-8,"MEAN_MOTION_DDOT":0}]}
